[{"OBJECT_NAME":"STARLINK-5196","OBJECT_ID":"2023-010BC","EPOCH":"2026-03-09T21:24:37.510848","MEAN_MOTION":14.98330027,"ECCENTRICITY":0.00027796,"INCLINATION":70.0009,"RA_OF_ASC_NODE":3.9051,"ARG_OF_PERICENTER":267.8181,"MEAN_ANOMALY":92.266,"EPHEMERIS_TYPE":0,"CLASSIFICATION_TYPE":"U","NORAD_CAT_ID":55319,"ELEMENT_SET_NO":999,"REV_AT_EPOCH":17467,"BSTAR":-3.2041794e-5,"MEAN_MOTION_DOT":-4.75e-6,"MEAN_MOTION_DDOT":0},{"OBJECT_NAME":"ORBCOMM FM02","OBJECT_ID":"1995-017B","EPOCH":"2026-03-09T15:14:02.878656","MEAN_MOTION":14.96738099,"ECCENTRICITY":0.0008676,"INCLINATION":69.9626,"RA_OF_ASC_NODE":148.0696,"ARG_OF_PERICENTER":276.2558,"MEAN_ANOMALY":83.7611,"EPHEMERIS_TYPE":0,"CLASSIFICATION_TYPE":"U","NORAD_CAT_ID":23546,"ELEMENT_SET_NO":999,"REV_AT_EPOCH":65179,"BSTAR":0.00080978,"MEAN_MOTION_DOT":9.2e-5,"MEAN_MOTION_DDOT":0}]
